start=new Date('2022-02-02T00:00:00.000Z').valueOf();
sats=[{"APOAPSIS":"548.415","TIME_SYSTEM":"UTC","MEAN_MOTION":"15.06403260","RCS_SIZE":"LARGE","GP_ID":"195121290","RA_OF_ASC_NODE":"176.2573","CENTER_NAME":"EARTH","ELEMENT_SET_NO":"999","REV_AT_EPOCH":"8198","BSTAR":"0.00002124800000","TLE_LINE1":"1 46160U 20057AV  22032.83486055  .00000035  00000-0  21248-4 0  9998","LAUNCH_DATE":"2020-08-18","EPOCH":"2022-02-01T20:02:11.951520","NORAD_CAT_ID":"46160","INCLINATION":"53.0539","OBJECT_NAME":"STARLINK-1598","REF_FRAME":"TEME","SEMIMAJOR_AXIS":"6925.339","MEAN_ANOMALY":"295.8256","SITE":"AFETR","PERIAPSIS":"545.992","MEAN_ELEMENT_THEORY":"SGP4","EPHEMERIS_TYPE":"0","CLASSIFICATION_TYPE":"U","ECCENTRICITY":"0.00017490","OBJECT_TYPE":"PAYLOAD","DECAY_DATE":null,"TLE_LINE2":"2 46160  53.0539 176.2573 0001749  64.2913 295.8256 15.06403260 81981","OBJECT_ID":"2020-057AV","MEAN_MOTION_DDOT":"0.0000000000000","PERIOD":"95.592","MEAN_MOTION_DOT":"0.00000035","ARG_OF_PERICENTER":"64.2913","FILE":"3289675","COUNTRY_CODE":"US"},{"RCS_SIZE":"LARGE","MEAN_MOTION":"15.06382169","APOAPSIS":"548.389","TIME_SYSTEM":"UTC","ELEMENT_SET_NO":"999","GP_ID":"195122032","RA_OF_ASC_NODE":"176.6526","CENTER_NAME":"EARTH","BSTAR":"-0.00039506000000","REV_AT_EPOCH":"8197","LAUNCH_DATE":"2020-08-18","TLE_LINE1":"1 46161U 20057AW  22032.74639349 -.00006158  00000-0 -39506-3 0  9994","NORAD_CAT_ID":"46161","EPOCH":"2022-02-01T17:54:48.397536","INCLINATION":"53.0530","REF_FRAME":"TEME","OBJECT_NAME":"STARLINK-1600","MEAN_ANOMALY":"270.4665","SEMIMAJOR_AXIS":"6925.403","PERIAPSIS":"546.148","SITE":"AFETR","MEAN_ELEMENT_THEORY":"SGP4","OBJECT_TYPE":"PAYLOAD","ECCENTRICITY":"0.00016180","EPHEMERIS_TYPE":"0","CLASSIFICATION_TYPE":"U","OBJECT_ID":"2020-057AW","TLE_LINE2":"2 46161  53.0530 176.6526 0001618  89.6510 270.4665 15.06382169 81970","DECAY_DATE":null,"COUNTRY_CODE":"US","FILE":"3289675","PERIOD":"95.593","MEAN_MOTION_DOT":"-0.00006158","MEAN_MOTION_DDOT":"0.0000000000000","ARG_OF_PERICENTER":"89.6510"},{"PERIAPSIS":"545.882","SITE":"AFETR","REF_FRAME":"TEME","OBJECT_NAME":"STARLINK-1603","MEAN_ANOMALY":"272.4178","SEMIMAJOR_AXIS":"6925.346","OBJECT_ID":"2020-057AX","DECAY_DATE":null,"TLE_LINE2":"2 46162  53.0557 176.6325 0001919  87.7031 272.4178 15.06400728 81982","FILE":"3289675","COUNTRY_CODE":"US","MEAN_MOTION_DDOT":"0.0000000000000","PERIOD":"95.592","ARG_OF_PERICENTER":"87.7031","MEAN_MOTION_DOT":"-0.00000482","MEAN_ELEMENT_THEORY":"SGP4","OBJECT_TYPE":"PAYLOAD","ECCENTRICITY":"0.00019190","EPHEMERIS_TYPE":"0","CLASSIFICATION_TYPE":"U","BSTAR":"-0.00001347300000","REV_AT_EPOCH":"8198","RCS_SIZE":"LARGE","MEAN_MOTION":"15.06400728","TIME_SYSTEM":"UTC","APOAPSIS":"548.540","ELEMENT_SET_NO":"999","GP_ID":"195120289","CENTER_NAME":"EARTH","RA_OF_ASC_NODE":"176.6325","NORAD_CAT_ID":"46162","EPOCH":"2022-02-01T18:00:06.919776","INCLINATION":"53.0557","LAUNCH_DATE":"2020-08-18","TLE_LINE1":"1 46162U 20057AX  22032.75008009 -.00000482  00000-0 -13473-4 0  9999"},{"PERIAPSIS":"546.030","SITE":"AFETR","REF_FRAME":"TEME","OBJECT_NAME":"STARLINK-1610","MEAN_ANOMALY":"277.3685","SEMIMAJOR_AXIS":"6925.325","OBJECT_ID":"2020-057AY","DECAY_DATE":null,"TLE_LINE2":"2 46163  53.0523 156.6535 0001676  82.7494 277.3685 15.06407608 81009","FILE":"3289675","COUNTRY_CODE":"US","MEAN_MOTION_DDOT":"0.0000000000000","PERIOD":"95.592","MEAN_MOTION_DOT":"0.00002165","ARG_OF_PERICENTER":"82.7494","MEAN_ELEMENT_THEORY":"SGP4","ECCENTRICITY":"0.00016760","OBJECT_TYPE":"PAYLOAD","CLASSIFICATION_TYPE":"U","EPHEMERIS_TYPE":"0","BSTAR":"0.00016418000000","REV_AT_EPOCH":"8100","MEAN_MOTION":"15.06407608","RCS_SIZE":"LARGE","APOAPSIS":"548.351","TIME_SYSTEM":"UTC","ELEMENT_SET_NO":"999","RA_OF_ASC_NODE":"156.6535","GP_ID":"195120539","CENTER_NAME":"EARTH","NORAD_CAT_ID":"46163","EPOCH":"2022-02-01T17:57:27.435744","INCLINATION":"53.0523","LAUNCH_DATE":"2020-08-18","TLE_LINE1":"1 46163U 20057AY  22032.74823421  .00002165  00000-0  16418-3 0  9991"},{"COUNTRY_CODE":"US","FILE":"3289675","PERIOD":"95.592","MEAN_MOTION_DDOT":"0.0000000000000","ARG_OF_PERICENTER":"88.7126","MEAN_MOTION_DOT":"0.00000014","OBJECT_ID":"2020-057AZ","TLE_LINE2":"2 46164  53.0530 156.6665 0001814  88.7126 271.4070 15.06406994 82263","DECAY_DATE":null,"OBJECT_TYPE":"PAYLOAD","ECCENTRICITY":"0.00018140","EPHEMERIS_TYPE":"0","CLASSIFICATION_TYPE":"U","MEAN_ELEMENT_THEORY":"SGP4","PERIAPSIS":"545.936","SITE":"AFETR","MEAN_ANOMALY":"271.4070","SEMIMAJOR_AXIS":"6925.327","REF_FRAME":"TEME","OBJECT_NAME":"STARLINK-1612","INCLINATION":"53.0530","NORAD_CAT_ID":"46164","EPOCH":"2022-02-01T17:52:08.610240","LAUNCH_DATE":"2020-08-18","TLE_LINE1":"1 46164U 20057AZ  22032.74454410  .00000014  00000-0  19844-4 0  9998","BSTAR":"0.00001984400000","REV_AT_EPOCH":"8226","ELEMENT_SET_NO":"999","GP_ID":"195121790","RA_OF_ASC_NODE":"156.6665","CENTER_NAME":"EARTH","RCS_SIZE":"LARGE","MEAN_MOTION":"15.06406994","APOAPSIS":"548.448","TIME_SYSTEM":"UTC"},{"LAUNCH_DATE":"2020-08-18","TLE_LINE1":"1 46165U 20057BA  22032.86543808  .00005428  00000-0  37277-3 0  9995","NORAD_CAT_ID":"46165","EPOCH":"2022-02-01T20:46:13.850112","INCLINATION":"53.0511","RCS_SIZE":"LARGE","MEAN_MOTION":"15.07421725","TIME_SYSTEM":"UTC","APOAPSIS":"545.927","ELEMENT_SET_NO":"999","RA_OF_ASC_NODE":"195.8754","GP_ID":"195121533","CENTER_NAME":"EARTH","BSTAR":"0.00037277000000","REV_AT_EPOCH":"8046","MEAN_ELEMENT_THEORY":"SGP4","ECCENTRICITY":"0.00026620","OBJECT_TYPE":"PAYLOAD","CLASSIFICATION_TYPE":"U","EPHEMERIS_TYPE":"0","OBJECT_ID":"2020-057BA","DECAY_DATE":null,"TLE_LINE2":"2 46165  53.0511 195.8754 0002662 122.4598 237.6649 15.07421725 80464","FILE":"3289675","COUNTRY_CODE":"US","MEAN_MOTION_DDOT":"0.0000000000000","PERIOD":"95.527","ARG_OF_PERICENTER":"122.4598","MEAN_MOTION_DOT":"0.00005428","REF_FRAME":"TEME","OBJECT_NAME":"STARLINK-1613","MEAN_ANOMALY":"237.6649","SEMIMAJOR_AXIS":"6922.219","PERIAPSIS":"542.241","SITE":"AFETR"},{"TLE_LINE1":"1 46166U 20057BB  22032.72981245  .00000493  00000-0  52039-4 0  9993","LAUNCH_DATE":"2020-08-18","EPOCH":"2022-02-01T17:30:55.795680","NORAD_CAT_ID":"46166","INCLINATION":"53.0546","APOAPSIS":"548.541","TIME_SYSTEM":"UTC","MEAN_MOTION":"15.06396058","RCS_SIZE":"LARGE","GP_ID":"195120789","RA_OF_ASC_NODE":"196.7271","CENTER_NAME":"EARTH","ELEMENT_SET_NO":"999","REV_AT_EPOCH":"8044","BSTAR":"0.00005203900000","MEAN_ELEMENT_THEORY":"SGP4","EPHEMERIS_TYPE":"0","CLASSIFICATION_TYPE":"U","ECCENTRICITY":"0.00019000","OBJECT_TYPE":"PAYLOAD","TLE_LINE2":"2 46166  53.0546 196.7271 0001900  77.8314 282.2888 15.06396058 80448","DECAY_DATE":null,"OBJECT_ID":"2020-057BB","MEAN_MOTION_DOT":"0.00000493","PERIOD":"95.592","MEAN_MOTION_DDOT":"0.0000000000000","ARG_OF_PERICENTER":"77.8314","COUNTRY_CODE":"US","FILE":"3289675","OBJECT_NAME":"STARLINK-1615","REF_FRAME":"TEME","SEMIMAJOR_AXIS":"6925.361","MEAN_ANOMALY":"282.2888","SITE":"AFETR","PERIAPSIS":"545.910"},{"BSTAR":"0.00003212600000","REV_AT_EPOCH":"8044","MEAN_MOTION":"15.06389457","RCS_SIZE":"LARGE","TIME_SYSTEM":"UTC","APOAPSIS":"548.555","ELEMENT_SET_NO":"999","CENTER_NAME":"EARTH","GP_ID":"195121039","RA_OF_ASC_NODE":"196.6773","NORAD_CAT_ID":"46167","EPOCH":"2022-02-01T17:52:10.094592","INCLINATION":"53.0544","LAUNCH_DATE":"2020-08-18","TLE_LINE1":"1 46167U 20057BC  22032.74456128  .00000197  00000-0  32126-4 0  9999","PERIAPSIS":"545.936","SITE":"AFETR","REF_FRAME":"TEME","OBJECT_NAME":"STARLINK-1626","MEAN_ANOMALY":"283.2999","SEMIMAJOR_AXIS":"6925.381","OBJECT_ID":"2020-057BC","DECAY_DATE":null,"TLE_LINE2":"2 46167  53.0544 196.6773 0001891  76.8201 283.2999 15.06389457 80445","FILE":"3289675","COUNTRY_CODE":"US","MEAN_MOTION_DDOT":"0.0000000000000","PERIOD":"95.593","ARG_OF_PERICENTER":"76.8201","MEAN_MOTION_DOT":"0.00000197","MEAN_ELEMENT_THEORY":"SGP4","OBJECT_TYPE":"PAYLOAD","ECCENTRICITY":"0.00018910","EPHEMERIS_TYPE":"0","CLASSIFICATION_TYPE":"U"},{"TLE_LINE1":"1 46168U 20057BD  22032.78138515  .00000000  00000-0  18906-4 0  9994","LAUNCH_DATE":"2020-08-18","EPOCH":"2022-02-01T18:45:11.676960","NORAD_CAT_ID":"46168","INCLINATION":"53.0542","APOAPSIS":"548.258","TIME_SYSTEM":"UTC","RCS_SIZE":"LARGE","MEAN_MOTION":"15.06394914","GP_ID":"195121291","RA_OF_ASC_NODE":"146.4962","CENTER_NAME":"EARTH","ELEMENT_SET_NO":"999","REV_AT_EPOCH":"8114","BSTAR":"0.00001890600000","MEAN_ELEMENT_THEORY":"SGP4","EPHEMERIS_TYPE":"0","CLASSIFICATION_TYPE":"U","OBJECT_TYPE":"PAYLOAD","ECCENTRICITY":"0.00014860","DECAY_DATE":null,"TLE_LINE2":"2 46168  53.0542 146.4962 0001486  84.0792 276.0367 15.06394914 81144","OBJECT_ID":"2020-057BD","PERIOD":"95.592","MEAN_MOTION_DDOT":"0.0000000000000","MEAN_MOTION_DOT":"0.00000000","ARG_OF_PERICENTER":"84.0792","FILE":"3289675","COUNTRY_CODE":"US","OBJECT_NAME":"STARLINK-1627","REF_FRAME":"TEME","SEMIMAJOR_AXIS":"6925.364","MEAN_ANOMALY":"276.0367","SITE":"AFETR","PERIAPSIS":"546.200"},{"CENTER_NAME":"EARTH","GP_ID":"195122033","RA_OF_ASC_NODE":"196.3072","ELEMENT_SET_NO":"999","APOAPSIS":"550.709","TIME_SYSTEM":"UTC","RCS_SIZE":"LARGE","MEAN_MOTION":"15.05581773","REV_AT_EPOCH":"8042","BSTAR":"-0.00004017400000","TLE_LINE1":"1 46169U 20057BE  22032.82187818 -.00000865  00000-0 -40174-4 0  9993","LAUNCH_DATE":"2020-08-18","INCLINATION":"52.9984","EPOCH":"2022-02-01T19:43:30.274752","NORAD_CAT_ID":"46169","SEMIMAJOR_AXIS":"6927.857","MEAN_ANOMALY":"282.7607","OBJECT_NAME":"STARLINK-1628","REF_FRAME":"TEME","SITE":"AFETR","PERIAPSIS":"548.736","EPHEMERIS_TYPE":"0","CLASSIFICATION_TYPE":"U","OBJECT_TYPE":"PAYLOAD","ECCENTRICITY":"0.00014240","MEAN_ELEMENT_THEORY":"SGP4","PERIOD":"95.644","MEAN_MOTION_DOT":"-0.00000865","MEAN_MOTION_DDOT":"0.0000000000000","ARG_OF_PERICENTER":"77.3540","COUNTRY_CODE":"US","FILE":"3289675","TLE_LINE2":"2 46169  52.9984 196.3072 0001424  77.3540 282.7607 15.05581773 80428","DECAY_DATE":null,"OBJECT_ID":"2020-057BE"}];
